[{"OBJECT_NAME":"OCEANSAT-2","OBJECT_ID":"2009-051A","EPOCH":"2026-03-14T14:57:25.458912","MEAN_MOTION":13.99641342,"ECCENTRICITY":0.00174594,"INCLINATION":98.2282,"RA_OF_ASC_NODE":69.9386,"ARG_OF_PERICENTER":137.5969,"MEAN_ANOMALY":222.655,"EPHEMERIS_TYPE":0,"CLASSIFICATION_TYPE":"U","NORAD_CAT_ID":35931,"ELEMENT_SET_NO":999,"REV_AT_EPOCH":86610,"BSTAR":0.00028505958,"MEAN_MOTION_DOT":3.8e-6,"MEAN_MOTION_DDOT":0},{"OBJECT_NAME":"WORLDVIEW-2 (WV-2)","OBJECT_ID":"2009-055A","EPOCH":"2026-03-14T14:20:52.061856","MEAN_MOTION":14.37912796,"ECCENTRICITY":0.00052471,"INCLINATION":98.4685,"RA_OF_ASC_NODE":148.3933,"ARG_OF_PERICENTER":133.1809,"MEAN_ANOMALY":226.9817,"EPHEMERIS_TYPE":0,"CLASSIFICATION_TYPE":"U","NORAD_CAT_ID":35946,"ELEMENT_SET_NO":999,"REV_AT_EPOCH":86205,"BSTAR":6.4934173e-5,"MEAN_MOTION_DOT":1.53e-6,"MEAN_MOTION_DDOT":0},{"OBJECT_NAME":"SMOS","OBJECT_ID":"2009-059A","EPOCH":"2026-03-14T12:51:37.128096","MEAN_MOTION":14.39764562,"ECCENTRICITY":9.506e-5,"INCLINATION":98.4431,"RA_OF_ASC_NODE":262.2439,"ARG_OF_PERICENTER":86.0583,"MEAN_ANOMALY":274.0713,"EPHEMERIS_TYPE":0,"CLASSIFICATION_TYPE":"U","NORAD_CAT_ID":36036,"ELEMENT_SET_NO":999,"REV_AT_EPOCH":85983,"BSTAR":0.00013114695,"MEAN_MOTION_DOT":3.68e-6,"MEAN_MOTION_DDOT":0},{"OBJECT_NAME":"YAOGAN-7","OBJECT_ID":"2009-069A","EPOCH":"2026-03-14T15:28:17.421312","MEAN_MOTION":14.77902151,"ECCENTRICITY":0.00243833,"INCLINATION":98.0202,"RA_OF_ASC_NODE":320.0342,"ARG_OF_PERICENTER":347.474,"MEAN_ANOMALY":12.5862,"EPHEMERIS_TYPE":0,"CLASSIFICATION_TYPE":"U","NORAD_CAT_ID":36110,"ELEMENT_SET_NO":999,"REV_AT_EPOCH":87566,"BSTAR":0.00012165104,"MEAN_MOTION_DOT":8.26e-6,"MEAN_MOTION_DDOT":0},{"OBJECT_NAME":"TANDEM-X","OBJECT_ID":"2010-030A","EPOCH":"2026-03-14T12:56:09.777120","MEAN_MOTION":15.19147509,"ECCENTRICITY":0.00019313,"INCLINATION":97.4474,"RA_OF_ASC_NODE":82.5932,"ARG_OF_PERICENTER":100.0574,"MEAN_ANOMALY":260.0879,"EPHEMERIS_TYPE":0,"CLASSIFICATION_TYPE":"U","NORAD_CAT_ID":36605,"ELEMENT_SET_NO":999,"REV_AT_EPOCH":87227,"BSTAR":6.1650812e-5,"MEAN_MOTION_DOT":1.228e-5,"MEAN_MOTION_DDOT":0},{"OBJECT_NAME":"CARTOSAT-2B","OBJECT_ID":"2010-035A","EPOCH":"2026-03-13T10:48:36.808992","MEAN_MOTION":14.786617,"ECCENTRICITY":0.00121418,"INCLINATION":97.9147,"RA_OF_ASC_NODE":123.6633,"ARG_OF_PERICENTER":136.3975,"MEAN_ANOMALY":223.8198,"EPHEMERIS_TYPE":0,"CLASSIFICATION_TYPE":"U","NORAD_CAT_ID":36795,"ELEMENT_SET_NO":999,"REV_AT_EPOCH":84570,"BSTAR":0.00019486608,"MEAN_MOTION_DOT":1.378e-5,"MEAN_MOTION_DDOT":0},{"OBJECT_NAME":"YAOGAN-10","OBJECT_ID":"2010-038A","EPOCH":"2026-03-14T15:24:20.071008","MEAN_MOTION":14.85036387,"ECCENTRICITY":0.00016014,"INCLINATION":97.908,"RA_OF_ASC_NODE":97.7788,"ARG_OF_PERICENTER":88.1115,"MEAN_ANOMALY":59.1806,"EPHEMERIS_TYPE":0,"CLASSIFICATION_TYPE":"U","NORAD_CAT_ID":36834,"ELEMENT_SET_NO":999,"REV_AT_EPOCH":84317,"BSTAR":0.00029282568,"MEAN_MOTION_DOT":2.446e-5,"MEAN_MOTION_DDOT":0},{"OBJECT_NAME":"COSMO-SKYMED 4","OBJECT_ID":"2010-060A","EPOCH":"2026-03-14T14:11:40.445376","MEAN_MOTION":14.82144865,"ECCENTRICITY":0.00014813,"INCLINATION":97.8871,"RA_OF_ASC_NODE":258.5566,"ARG_OF_PERICENTER":85.7911,"MEAN_ANOMALY":274.3472,"EPHEMERIS_TYPE":0,"CLASSIFICATION_TYPE":"U","NORAD_CAT_ID":37216,"ELEMENT_SET_NO":999,"REV_AT_EPOCH":83055,"BSTAR":6.5906206e-5,"MEAN_MOTION_DOT":4.72e-6,"MEAN_MOTION_DDOT":0},{"OBJECT_NAME":"RESOURCESAT-2","OBJECT_ID":"2011-015A","EPOCH":"2026-03-13T14:00:14.726592","MEAN_MOTION":14.21492639,"ECCENTRICITY":0.00065034,"INCLINATION":98.771,"RA_OF_ASC_NODE":140.6462,"ARG_OF_PERICENTER":129.1127,"MEAN_ANOMALY":231.063,"EPHEMERIS_TYPE":0,"CLASSIFICATION_TYPE":"U","NORAD_CAT_ID":37387,"ELEMENT_SET_NO":999,"REV_AT_EPOCH":77259,"BSTAR":-0.00010660624,"MEAN_MOTION_DOT":-2.78e-6,"MEAN_MOTION_DDOT":0},{"OBJECT_NAME":"HAIYANG-2A","OBJECT_ID":"2011-043A","EPOCH":"2026-03-14T13:53:47.480064","MEAN_MOTION":13.78023238,"ECCENTRICITY":0.00021374,"INCLINATION":99.3422,"RA_OF_ASC_NODE":78.1041,"ARG_OF_PERICENTER":255.507,"MEAN_ANOMALY":104.5844,"EPHEMERIS_TYPE":0,"CLASSIFICATION_TYPE":"U","NORAD_CAT_ID":37781,"ELEMENT_SET_NO":999,"REV_AT_EPOCH":73364,"BSTAR":-6.9132467e-5,"MEAN_MOTION_DOT":-1.13e-6,"MEAN_MOTION_DDOT":0},{"OBJECT_NAME":"RASAT","OBJECT_ID":"2011-044D","EPOCH":"2026-03-14T14:06:23.139648","MEAN_MOTION":14.68066133,"ECCENTRICITY":0.00216403,"INCLINATION":98.0551,"RA_OF_ASC_NODE":166.4511,"ARG_OF_PERICENTER":129.9778,"MEAN_ANOMALY":343.2415,"EPHEMERIS_TYPE":0,"CLASSIFICATION_TYPE":"U","NORAD_CAT_ID":37791,"ELEMENT_SET_NO":999,"REV_AT_EPOCH":77930,"BSTAR":0.0001962448,"MEAN_MOTION_DOT":1.081e-5,"MEAN_MOTION_DDOT":0},{"OBJECT_NAME":"SRMSAT","OBJECT_ID":"2011-058D","EPOCH":"2026-03-14T15:15:56.915424","MEAN_MOTION":14.11549824,"ECCENTRICITY":0.00117235,"INCLINATION":19.9716,"RA_OF_ASC_NODE":271.7666,"ARG_OF_PERICENTER":243.5427,"MEAN_ANOMALY":173.7413,"EPHEMERIS_TYPE":0,"CLASSIFICATION_TYPE":"U","NORAD_CAT_ID":37841,"ELEMENT_SET_NO":999,"REV_AT_EPOCH":74444,"BSTAR":0.00011273211,"MEAN_MOTION_DOT":4.73e-6,"MEAN_MOTION_DDOT":0},{"OBJECT_NAME":"PLEIADES 1A","OBJECT_ID":"2011-076F","EPOCH":"2026-03-14T16:19:10.962336","MEAN_MOTION":14.58545201,"ECCENTRICITY":0.00017127,"INCLINATION":98.2035,"RA_OF_ASC_NODE":150.0303,"ARG_OF_PERICENTER":85.7617,"MEAN_ANOMALY":75.4847,"EPHEMERIS_TYPE":0,"CLASSIFICATION_TYPE":"U","NORAD_CAT_ID":38012,"ELEMENT_SET_NO":999,"REV_AT_EPOCH":75821,"BSTAR":0.00011964187,"MEAN_MOTION_DOT":5.1e-6,"MEAN_MOTION_DDOT":0},{"OBJECT_NAME":"ZIYUAN 1-02C (ZY 1-02C)","OBJECT_ID":"2011-079A","EPOCH":"2026-03-14T16:25:53.218272","MEAN_MOTION":14.38129965,"ECCENTRICITY":0.00055287,"INCLINATION":98.4164,"RA_OF_ASC_NODE":142.9392,"ARG_OF_PERICENTER":222.6982,"MEAN_ANOMALY":299.6086,"EPHEMERIS_TYPE":0,"CLASSIFICATION_TYPE":"U","NORAD_CAT_ID":38038,"ELEMENT_SET_NO":999,"REV_AT_EPOCH":74562,"BSTAR":0.00023117764,"MEAN_MOTION_DOT":6.58e-6,"MEAN_MOTION_DDOT":0},{"OBJECT_NAME":"ARIRANG-3 (KOMPSAT-3)","OBJECT_ID":"2012-025B","EPOCH":"2026-03-14T14:17:42.497664","MEAN_MOTION":14.62110441,"ECCENTRICITY":0.00065834,"INCLINATION":98.107,"RA_OF_ASC_NODE":32.7493,"ARG_OF_PERICENTER":58.4929,"MEAN_ANOMALY":301.6915,"EPHEMERIS_TYPE":0,"CLASSIFICATION_TYPE":"U","NORAD_CAT_ID":38338,"ELEMENT_SET_NO":999,"REV_AT_EPOCH":73752,"BSTAR":0.00014805709,"MEAN_MOTION_DOT":6.98e-6,"MEAN_MOTION_DDOT":0},{"OBJECT_NAME":"EXACTVIEW-1 (ADS-1B)","OBJECT_ID":"2012-039C","EPOCH":"2026-03-14T14:08:23.682336","MEAN_MOTION":14.24953559,"ECCENTRICITY":0.00119149,"INCLINATION":98.964,"RA_OF_ASC_NODE":188.9081,"ARG_OF_PERICENTER":85.4475,"MEAN_ANOMALY":274.8064,"EPHEMERIS_TYPE":0,"CLASSIFICATION_TYPE":"U","NORAD_CAT_ID":38709,"ELEMENT_SET_NO":999,"REV_AT_EPOCH":70923,"BSTAR":0.00010171003,"MEAN_MOTION_DOT":1.92e-6,"MEAN_MOTION_DDOT":0}]
