OCEANSAT-2              
1 35931U 09051A   26073.62321133  .00000380  00000+0  28506-3 0  9999
2 35931  98.2282  69.9386 0017459 137.5969 222.6550 13.99641342866106
WORLDVIEW-2 (WV-2)      
1 35946U 09055A   26073.59782479  .00000153  00000+0  64934-4 0  9993
2 35946  98.4685 148.3933 0005247 133.1809 226.9817 14.37912796862058
SMOS                    
1 36036U 09059A   26073.53584639  .00000368  00000+0  13115-3 0  9992
2 36036  98.4431 262.2439 0000950  86.0583 274.0713 14.39764562859835
YAOGAN-7                
1 36110U 09069A   26073.64464608  .00000826  00000+0  12165-3 0  9994
2 36110  98.0202 320.0342 0024383 347.4740  12.5862 14.77902151875660
TANDEM-X                
1 36605U 10030A   26073.53900205  .00001228  00000+0  61651-4 0  9991
2 36605  97.4474  82.5932 0001931 100.0574 260.0879 15.19147509872277
CARTOSAT-2B             
1 36795U 10035A   26072.45042603  .00001378  00000+0  19487-3 0  9990
2 36795  97.9147 123.6633 0012141 136.3975 223.8198 14.78661700845703
YAOGAN-10               
1 36834U 10038A   26073.64189897  .00002446  00000+0  29283-3 0  9998
2 36834  97.9080  97.7788 0001601  88.1115  59.1806 14.85036387843174
COSMO-SKYMED 4          
1 37216U 10060A   26073.59144034  .00000472  00000+0  65906-4 0  9996
2 37216  97.8871 258.5566 0001481  85.7911 274.3472 14.82144865830556
RESOURCESAT-2           
1 37387U 11015A   26072.58350378 -.00000278  00000+0 -10661-3 0  9997
2 37387  98.7710 140.6462 0006503 129.1127 231.0630 14.21492639772598
HAIYANG-2A              
1 37781U 11043A   26073.57902176 -.00000113  00000+0 -69132-4 0  9991
2 37781  99.3422  78.1041 0002137 255.5070 104.5844 13.78023238733641
RASAT                   
1 37791U 11044D   26073.58776782  .00001081  00000+0  19624-3 0  9999
2 37791  98.0551 166.4511 0021640 129.9778 343.2415 14.68066133779303
SRMSAT                  
1 37841U 11058D   26073.63607541  .00000473  00000+0  11273-3 0  9998
2 37841  19.9716 271.7666 0011723 243.5427 173.7413 14.11549824744442
PLEIADES 1A             
1 38012U 11076F   26073.67998799  .00000510  00000+0  11964-3 0  9990
2 38012  98.2035 150.0303 0001712  85.7617  75.4847 14.58545201758213
ZIYUAN 1-02C (ZY 1-02C) 
1 38038U 11079A   26073.68464373  .00000658  00000+0  23118-3 0  9995
2 38038  98.4164 142.9392 0005528 222.6982 299.6086 14.38129965745629
ARIRANG-3 (KOMPSAT-3)   
1 38338U 12025B   26073.59563076  .00000698  00000+0  14806-3 0  9998
2 38338  98.1070  32.7493 0006583  58.4929 301.6915 14.62110441737522
EXACTVIEW-1 (ADS-1B)    
1 38709U 12039C   26073.58916299  .00000192  00000+0  10171-3 0  9993
2 38709  98.9640 188.9081 0011914  85.4475 274.8064 14.24953559709238
